{
    "links": {
        "self": "http://www.neowsapp.com/rest/v1/neo/3799710?api_key=iIulBulltgU6a56xZRHN4H3l9WmuAYTsLGpBGhQ2"
    },
    "id": "3799710",
    "neo_reference_id": "3799710",
    "name": "(2018 DQ)",
    "designation": "2018 DQ",
    "nasa_jpl_url": "http://ssd.jpl.nasa.gov/sbdb.cgi?sstr=3799710",
    "absolute_magnitude_h": 29.1,
    "estimated_diameter": {
        "kilometers": {
            "estimated_diameter_min": 0.0040230458,
            "estimated_diameter_max": 0.0089958039
        },
        "meters": {
            "estimated_diameter_min": 4.0230457983,
            "estimated_diameter_max": 8.9958038817
        },
        "miles": {
            "estimated_diameter_min": 0.002499804,
            "estimated_diameter_max": 0.0055897317
        },
        "feet": {
            "estimated_diameter_min": 13.198969577,
            "estimated_diameter_max": 29.5137932072
        }
    },
    "is_potentially_hazardous_asteroid": false,
    "close_approach_data": [
        {
            "close_approach_date": "2018-02-21",
            "close_approach_date_full": "2018-Feb-21 10:19",
            "epoch_date_close_approach": 1519208340000,
            "relative_velocity": {
                "kilometers_per_second": "20.0057981303",
                "kilometers_per_hour": "72020.873268923",
                "miles_per_hour": "44750.9698375705"
            },
            "miss_distance": {
                "astronomical": "0.0030374394",
                "lunar": "1.1815639266",
                "kilometers": "454394.464494078",
                "miles": "282347.6276031564"
            },
            "orbiting_body": "Moon"
        },
        {
            "close_approach_date": "2018-02-21",
            "close_approach_date_full": "2018-Feb-21 12:16",
            "epoch_date_close_approach": 1519215360000,
            "relative_velocity": {
                "kilometers_per_second": "21.0598410927",
                "kilometers_per_hour": "75815.4279336775",
                "miles_per_hour": "47108.7585402342"
            },
            "miss_distance": {
                "astronomical": "0.0006716102",
                "lunar": "0.2612563678",
                "kilometers": "100471.455390274",
                "miles": "62430.0674588212"
            },
            "orbiting_body": "Earth"
        }
    ],
    "orbital_data": {
        "orbit_id": "2",
        "orbit_determination_date": "2018-02-24 06:27:55",
        "first_observation_date": "2018-02-22",
        "last_observation_date": "2018-02-23",
        "data_arc_in_days": 1,
        "observations_used": 20,
        "orbit_uncertainty": "8",
        "minimum_orbit_intersection": "6.36947E-5",
        "jupiter_tisserand_invariant": "3.872",
        "epoch_osculation": "2458172.5",
        "eccentricity": ".684555293011147",
        "semi_major_axis": "1.714428439506286",
        "inclination": ".3957398069648005",
        "ascending_node_longitude": "152.1756597657069",
        "orbital_period": "819.9313092230099",
        "perihelion_distance": ".5408073767534169",
        "perihelion_argument": "263.8097070435609",
        "aphelion_distance": "2.888049502259156",
        "perihelion_time": "2458123.197652408947",
        "mean_anomaly": "21.64674642025609",
        "mean_motion": ".4390611700645341",
        "equinox": "J2000",
        "orbit_class": {
            "orbit_class_type": "APO",
            "orbit_class_description": "Near-Earth asteroid orbits which cross the Earth’s orbit similar to that of 1862 Apollo",
            "orbit_class_range": "a (semi-major axis) > 1.0 AU; q (perihelion) < 1.017 AU"
        }
    },
    "is_sentry_object": false
}